[{"OBJECT_NAME":"ONEWEB-0649","OBJECT_ID":"2023-029S","EPOCH":"2026-03-09T18:17:55.472640","MEAN_MOTION":13.19724735,"ECCENTRICITY":0.00016972,"INCLINATION":87.9229,"RA_OF_ASC_NODE":324.7851,"ARG_OF_PERICENTER":90.7297,"MEAN_ANOMALY":269.403,"EPHEMERIS_TYPE":0,"CLASSIFICATION_TYPE":"U","NORAD_CAT_ID":55812,"ELEMENT_SET_NO":999,"REV_AT_EPOCH":14581,"BSTAR":-0.00019671753,"MEAN_MOTION_DOT":-6.6e-7,"MEAN_MOTION_DDOT":0},{"OBJECT_NAME":"SSU 1","OBJECT_ID":"1976-038C","EPOCH":"2026-03-09T16:01:30.649440","MEAN_MOTION":13.83068183,"ECCENTRICITY":0.03933769,"INCLINATION":63.3609,"RA_OF_ASC_NODE":176.4614,"ARG_OF_PERICENTER":178.6058,"MEAN_ANOMALY":181.6188,"EPHEMERIS_TYPE":0,"CLASSIFICATION_TYPE":"U","NORAD_CAT_ID":8835,"ELEMENT_SET_NO":999,"REV_AT_EPOCH":34505,"BSTAR":0.00023819777,"MEAN_MOTION_DOT":3.67e-6,"MEAN_MOTION_DDOT":0}]
